STAR ONE C3             
1 38991U 12062A   26061.50197227 -.00000266  00000+0  00000+0 0  9992
2 38991   0.0439 285.0472 0002248  65.9161 275.0136  1.00272688 48695
EUTELSAT 21B            
1 38992U 12062B   26061.73505461  .00000113  00000+0  00000+0 0  9991
2 38992   0.0677 353.8813 0002850 343.7403 109.0853  1.00270849 48765
ECHOSTAR 16             
1 39008U 12065A   26061.57572594 -.00000299  00000+0  00000+0 0  9992
2 39008   0.0139 135.2312 0001941 207.7524 323.1046  1.00270389 48577
ZHONGXING-12            
1 39017U 12067A   26061.74805468 -.00000223  00000+0  00000+0 0  9999
2 39017   0.0384 107.0245 0003426 225.6872 184.5931  1.00270768 48445
EUTELSAT 70B            
1 39020U 12069A   26061.84072336 -.00000060  00000+0  00000+0 0  9995
2 39020   0.0672 335.7056 0002147 342.3529 215.7066  1.00275000 48444
YAMAL 402               
1 39022U 12070A   26061.82267103  .00000070  00000+0  00000+0 0  9995
2 39022   0.9912  85.6339 0004120 253.8758 172.1305  1.00272016 48334
SKYNET 5D               
1 39034U 12075A   26061.82267102  .00000083  00000+0  00000+0 0  9996
2 39034   0.0739   5.5336 0003850 334.0050 169.9149  1.00273032 48091
MEXSAT 3                
1 39035U 12075B   26061.56702607 -.00000042  00000+0  00000+0 0  9998
2 39035   0.0148 196.7866 0001638 129.4210 283.4454  1.00269565  5981
TDRS 11                 
1 39070U 13004A   26061.69622776  .00000065  00000+0  00000+0 0  9996
2 39070   3.3648  29.3196 0003910 349.7595 217.6565  1.00275964 45623
AMAZONAS 3              
1 39078U 13006A   26061.57572594 -.00000299  00000+0  00000+0 0  9995
2 39078   0.0342 220.4046 0002475 102.8273 343.3395  1.00268881 43840
AZERSPACE 1             
1 39079U 13006B   26061.66854639  .00000116  00000+0  00000+0 0  9996
2 39079   0.0168 232.9604 0000986 119.8039  94.3122  1.00273391 47733
SBIRS GEO-2 (USA 241)   
1 39120U 13011A   26061.72092789 -.00000300  00000+0  00000+0 0  9992
2 39120   4.2578  52.3802 0002251 290.2852  27.5614  1.00271696 47469
EUTELSAT 117 WEST A     
1 39122U 13012A   26061.70758115 -.00000030  00000+0  00000+0 0  9995
2 39122   0.0571 290.0763 0003065  57.6395 310.6849  1.00272711 47360
ANIK G1                 
1 39127U 13014A   26061.63821292 -.00000091  00000+0  00000+0 0  9998
2 39127   0.0593 271.4965 0003112  47.7381 323.6171  1.00271456 47181
ZHONGXING-11            
1 39157U 13020A   26061.53620575  .00000000  00000+0  00000+0 0  9997
2 39157   0.0070 199.3367 0003048 118.7216 133.2177  1.00271190 46828
EUTELSAT 7B             
1 39163U 13022A   26061.73219459  .00000031  00000+0  00000+0 0  9997
2 39163   0.0690 347.3586 0006303   4.3929  79.3142  1.00271647 46873
WGS F5 (USA 243)        
1 39168U 13024A   26061.32822449 -.00000302  00000+0  00000+0 0  9990
2 39168   0.0074 135.3996 0000331 177.5097 272.8582  1.00273123 46103
