[{"OBJECT_NAME":"STAR ONE C3","OBJECT_ID":"2012-062A","EPOCH":"2026-03-02T12:02:50.404128","MEAN_MOTION":1.00272688,"ECCENTRICITY":0.0002248,"INCLINATION":0.0439,"RA_OF_ASC_NODE":285.0472,"ARG_OF_PERICENTER":65.9161,"MEAN_ANOMALY":275.0136,"EPHEMERIS_TYPE":0,"CLASSIFICATION_TYPE":"U","NORAD_CAT_ID":38991,"ELEMENT_SET_NO":999,"REV_AT_EPOCH":4869,"BSTAR":0,"MEAN_MOTION_DOT":-2.66e-6,"MEAN_MOTION_DDOT":0},{"OBJECT_NAME":"EUTELSAT 21B","OBJECT_ID":"2012-062B","EPOCH":"2026-03-02T17:38:28.718304","MEAN_MOTION":1.00270849,"ECCENTRICITY":0.000285,"INCLINATION":0.0677,"RA_OF_ASC_NODE":353.8813,"ARG_OF_PERICENTER":343.7403,"MEAN_ANOMALY":109.0853,"EPHEMERIS_TYPE":0,"CLASSIFICATION_TYPE":"U","NORAD_CAT_ID":38992,"ELEMENT_SET_NO":999,"REV_AT_EPOCH":4876,"BSTAR":0,"MEAN_MOTION_DOT":1.13e-6,"MEAN_MOTION_DDOT":0},{"OBJECT_NAME":"ECHOSTAR 16","OBJECT_ID":"2012-065A","EPOCH":"2026-03-02T13:49:02.721216","MEAN_MOTION":1.00270389,"ECCENTRICITY":0.0001941,"INCLINATION":0.0139,"RA_OF_ASC_NODE":135.2312,"ARG_OF_PERICENTER":207.7524,"MEAN_ANOMALY":323.1046,"EPHEMERIS_TYPE":0,"CLASSIFICATION_TYPE":"U","NORAD_CAT_ID":39008,"ELEMENT_SET_NO":999,"REV_AT_EPOCH":4857,"BSTAR":0,"MEAN_MOTION_DOT":-2.99e-6,"MEAN_MOTION_DDOT":0},{"OBJECT_NAME":"ZHONGXING-12","OBJECT_ID":"2012-067A","EPOCH":"2026-03-02T17:57:11.924352","MEAN_MOTION":1.00270768,"ECCENTRICITY":0.0003426,"INCLINATION":0.0384,"RA_OF_ASC_NODE":107.0245,"ARG_OF_PERICENTER":225.6872,"MEAN_ANOMALY":184.5931,"EPHEMERIS_TYPE":0,"CLASSIFICATION_TYPE":"U","NORAD_CAT_ID":39017,"ELEMENT_SET_NO":999,"REV_AT_EPOCH":4844,"BSTAR":0,"MEAN_MOTION_DOT":-2.23e-6,"MEAN_MOTION_DDOT":0},{"OBJECT_NAME":"EUTELSAT 70B","OBJECT_ID":"2012-069A","EPOCH":"2026-03-02T20:10:38.498304","MEAN_MOTION":1.00275,"ECCENTRICITY":0.0002147,"INCLINATION":0.0672,"RA_OF_ASC_NODE":335.7056,"ARG_OF_PERICENTER":342.3529,"MEAN_ANOMALY":215.7066,"EPHEMERIS_TYPE":0,"CLASSIFICATION_TYPE":"U","NORAD_CAT_ID":39020,"ELEMENT_SET_NO":999,"REV_AT_EPOCH":4844,"BSTAR":0,"MEAN_MOTION_DOT":-6.0e-7,"MEAN_MOTION_DDOT":0},{"OBJECT_NAME":"YAMAL 402","OBJECT_ID":"2012-070A","EPOCH":"2026-03-02T19:44:38.776992","MEAN_MOTION":1.00272016,"ECCENTRICITY":0.000412,"INCLINATION":0.9912,"RA_OF_ASC_NODE":85.6339,"ARG_OF_PERICENTER":253.8758,"MEAN_ANOMALY":172.1305,"EPHEMERIS_TYPE":0,"CLASSIFICATION_TYPE":"U","NORAD_CAT_ID":39022,"ELEMENT_SET_NO":999,"REV_AT_EPOCH":4833,"BSTAR":0,"MEAN_MOTION_DOT":7.0e-7,"MEAN_MOTION_DDOT":0},{"OBJECT_NAME":"SKYNET 5D","OBJECT_ID":"2012-075A","EPOCH":"2026-03-02T19:44:38.776128","MEAN_MOTION":1.00273032,"ECCENTRICITY":0.000385,"INCLINATION":0.0739,"RA_OF_ASC_NODE":5.5336,"ARG_OF_PERICENTER":334.005,"MEAN_ANOMALY":169.9149,"EPHEMERIS_TYPE":0,"CLASSIFICATION_TYPE":"U","NORAD_CAT_ID":39034,"ELEMENT_SET_NO":999,"REV_AT_EPOCH":4809,"BSTAR":0,"MEAN_MOTION_DOT":8.3e-7,"MEAN_MOTION_DDOT":0},{"OBJECT_NAME":"MEXSAT 3","OBJECT_ID":"2012-075B","EPOCH":"2026-03-02T13:36:31.052448","MEAN_MOTION":1.00269565,"ECCENTRICITY":0.0001638,"INCLINATION":0.0148,"RA_OF_ASC_NODE":196.7866,"ARG_OF_PERICENTER":129.421,"MEAN_ANOMALY":283.4454,"EPHEMERIS_TYPE":0,"CLASSIFICATION_TYPE":"U","NORAD_CAT_ID":39035,"ELEMENT_SET_NO":999,"REV_AT_EPOCH":598,"BSTAR":0,"MEAN_MOTION_DOT":-4.2e-7,"MEAN_MOTION_DDOT":0},{"OBJECT_NAME":"TDRS 11","OBJECT_ID":"2013-004A","EPOCH":"2026-03-02T16:42:34.078464","MEAN_MOTION":1.00275964,"ECCENTRICITY":0.000391,"INCLINATION":3.3648,"RA_OF_ASC_NODE":29.3196,"ARG_OF_PERICENTER":349.7595,"MEAN_ANOMALY":217.6565,"EPHEMERIS_TYPE":0,"CLASSIFICATION_TYPE":"U","NORAD_CAT_ID":39070,"ELEMENT_SET_NO":999,"REV_AT_EPOCH":4562,"BSTAR":0,"MEAN_MOTION_DOT":6.5e-7,"MEAN_MOTION_DDOT":0},{"OBJECT_NAME":"AMAZONAS 3","OBJECT_ID":"2013-006A","EPOCH":"2026-03-02T13:49:02.721216","MEAN_MOTION":1.00268881,"ECCENTRICITY":0.0002475,"INCLINATION":0.0342,"RA_OF_ASC_NODE":220.4046,"ARG_OF_PERICENTER":102.8273,"MEAN_ANOMALY":343.3395,"EPHEMERIS_TYPE":0,"CLASSIFICATION_TYPE":"U","NORAD_CAT_ID":39078,"ELEMENT_SET_NO":999,"REV_AT_EPOCH":4384,"BSTAR":0,"MEAN_MOTION_DOT":-2.99e-6,"MEAN_MOTION_DDOT":0},{"OBJECT_NAME":"AZERSPACE 1","OBJECT_ID":"2013-006B","EPOCH":"2026-03-02T16:02:42.408096","MEAN_MOTION":1.00273391,"ECCENTRICITY":9.86e-5,"INCLINATION":0.0168,"RA_OF_ASC_NODE":232.9604,"ARG_OF_PERICENTER":119.8039,"MEAN_ANOMALY":94.3122,"EPHEMERIS_TYPE":0,"CLASSIFICATION_TYPE":"U","NORAD_CAT_ID":39079,"ELEMENT_SET_NO":999,"REV_AT_EPOCH":4773,"BSTAR":0,"MEAN_MOTION_DOT":1.16e-6,"MEAN_MOTION_DDOT":0},{"OBJECT_NAME":"SBIRS GEO-2 (USA 241)","OBJECT_ID":"2013-011A","EPOCH":"2026-03-02T17:18:08.169696","MEAN_MOTION":1.00271696,"ECCENTRICITY":0.0002251,"INCLINATION":4.2578,"RA_OF_ASC_NODE":52.3802,"ARG_OF_PERICENTER":290.2852,"MEAN_ANOMALY":27.5614,"EPHEMERIS_TYPE":0,"CLASSIFICATION_TYPE":"U","NORAD_CAT_ID":39120,"ELEMENT_SET_NO":999,"REV_AT_EPOCH":4746,"BSTAR":0,"MEAN_MOTION_DOT":-3.0e-6,"MEAN_MOTION_DDOT":0},{"OBJECT_NAME":"EUTELSAT 117 WEST A","OBJECT_ID":"2013-012A","EPOCH":"2026-03-02T16:58:55.011360","MEAN_MOTION":1.00272711,"ECCENTRICITY":0.0003065,"INCLINATION":0.0571,"RA_OF_ASC_NODE":290.0763,"ARG_OF_PERICENTER":57.6395,"MEAN_ANOMALY":310.6849,"EPHEMERIS_TYPE":0,"CLASSIFICATION_TYPE":"U","NORAD_CAT_ID":39122,"ELEMENT_SET_NO":999,"REV_AT_EPOCH":4736,"BSTAR":0,"MEAN_MOTION_DOT":-3.0e-7,"MEAN_MOTION_DDOT":0},{"OBJECT_NAME":"ANIK G1","OBJECT_ID":"2013-014A","EPOCH":"2026-03-02T15:19:01.596288","MEAN_MOTION":1.00271456,"ECCENTRICITY":0.0003112,"INCLINATION":0.0593,"RA_OF_ASC_NODE":271.4965,"ARG_OF_PERICENTER":47.7381,"MEAN_ANOMALY":323.6171,"EPHEMERIS_TYPE":0,"CLASSIFICATION_TYPE":"U","NORAD_CAT_ID":39127,"ELEMENT_SET_NO":999,"REV_AT_EPOCH":4718,"BSTAR":0,"MEAN_MOTION_DOT":-9.1e-7,"MEAN_MOTION_DDOT":0},{"OBJECT_NAME":"ZHONGXING-11","OBJECT_ID":"2013-020A","EPOCH":"2026-03-02T12:52:08.176800","MEAN_MOTION":1.0027119,"ECCENTRICITY":0.0003048,"INCLINATION":0.007,"RA_OF_ASC_NODE":199.3367,"ARG_OF_PERICENTER":118.7216,"MEAN_ANOMALY":133.2177,"EPHEMERIS_TYPE":0,"CLASSIFICATION_TYPE":"U","NORAD_CAT_ID":39157,"ELEMENT_SET_NO":999,"REV_AT_EPOCH":4682,"BSTAR":0,"MEAN_MOTION_DOT":0,"MEAN_MOTION_DDOT":0},{"OBJECT_NAME":"EUTELSAT 7B","OBJECT_ID":"2013-022A","EPOCH":"2026-03-02T17:34:21.612576","MEAN_MOTION":1.00271647,"ECCENTRICITY":0.0006303,"INCLINATION":0.069,"RA_OF_ASC_NODE":347.3586,"ARG_OF_PERICENTER":4.3929,"MEAN_ANOMALY":79.3142,"EPHEMERIS_TYPE":0,"CLASSIFICATION_TYPE":"U","NORAD_CAT_ID":39163,"ELEMENT_SET_NO":999,"REV_AT_EPOCH":4687,"BSTAR":0,"MEAN_MOTION_DOT":3.1e-7,"MEAN_MOTION_DDOT":0},{"OBJECT_NAME":"WGS F5 (USA 243)","OBJECT_ID":"2013-024A","EPOCH":"2026-03-02T07:52:38.595936","MEAN_MOTION":1.00273123,"ECCENTRICITY":3.31e-5,"INCLINATION":0.0074,"RA_OF_ASC_NODE":135.3996,"ARG_OF_PERICENTER":177.5097,"MEAN_ANOMALY":272.8582,"EPHEMERIS_TYPE":0,"CLASSIFICATION_TYPE":"U","NORAD_CAT_ID":39168,"ELEMENT_SET_NO":999,"REV_AT_EPOCH":4610,"BSTAR":0,"MEAN_MOTION_DOT":-3.02e-6,"MEAN_MOTION_DDOT":0}]
